SMILE                   
1 69123U 26109A   26158.38327019 -.00000041  00000+0 -36778-3 0  9994
2 69123  69.9787 209.3069 3310191 288.5544  45.7342  7.54049028  2480
STARLINK-37726          
1 69124U 26110A   26167.84564648  .00023060  00000+0  42413-3 0  9996
2 69124  97.2836   4.0602 0001496  89.2690 270.8733 15.49208134  5546
STARLINK-37722          
1 69125U 26110B   26166.55038854  .00028583  00000+0  52493-3 0  9993
2 69125  97.2822   2.9146 0001731  97.0248 263.1200 15.49208597  5356
STARLINK-37715          
1 69126U 26110C   26167.83335647  .00040432  00000+0  12492-2 0  9997
2 69126  97.2841   4.1975 0001768  94.4565 188.9690 15.33413425  5599
STARLINK-37706          
1 69127U 26110D   26167.83335647  .00040984  00000+0  12661-2 0  9998
2 69127  97.2841   4.2047 0001583  94.0965 204.3305 15.33416033  5590
STARLINK-37723          
1 69128U 26110E   26167.83335647  .00044725  00000+0  13808-2 0  9990
2 69128  97.2842   4.2111 0001427  93.4885 219.9310 15.33414009  5594
STARLINK-37720          
1 69129U 26110F   26167.51390166  .00034462  00000+0  63204-3 0  9996
2 69129  97.2830   3.7477 0001583 102.0239 258.1190 15.49210649  5495
STARLINK-37533          
1 69130U 26110G   26167.83335647  .00052240  00000+0  16124-2 0  9998
2 69130  97.2844   4.2300 0001728  92.4744 266.0469 15.33384443  5592
STARLINK-37530          
1 69131U 26110H   26167.83335647  .00049794  00000+0  15362-2 0  9992
2 69131  97.2843   4.2370 0001867  91.6891 281.7403 15.33411383  5593
STARLINK-37660          
1 69132U 26110J   26167.83335647 -.02994676  00000+0 -87403-1 0  9999
2 69132  97.2849   4.2294 0002115 109.2714 238.7132 15.39211616  5596
STARLINK-37633          
1 69133U 26110K   26167.83335647 -.02259206  00000+0 -66315-1 0  9992
2 69133  97.2856   4.2467 0001116  98.8388 291.0158 15.38595679  5590
STARLINK-37361          
1 69134U 26110L   26167.83335647  .00048836  00000+0  15065-2 0  9991
2 69134  97.2845   4.2562 0001970  90.1333 328.2680 15.33419082  5599
STARLINK-37372          
1 69135U 26110M   26167.83335647  .00056278  00000+0  15534-2 0  9992
2 69135  97.2847   4.2493 0001236  78.8465 322.9358 15.36883752  5594
STARLINK-37531          
1 69136U 26110N   26167.83335647  .00049192  00000+0  15178-2 0  9994
2 69136  97.2844   4.2685 0001736  97.3139 351.0891 15.33409182  5597
STARLINK-37662          
1 69137U 26110P   26167.83335647 -.01810364  00000+0 -51488-1 0  9998
2 69137  97.2858   4.2595 0001619  82.1528 326.1472 15.39352629  5594
STARLINK-37658          
1 69138U 26110Q   26167.52651180  .00030636  00000+0  56225-3 0  9997
2 69138  97.2843   3.8861 0001516 119.0725 241.0678 15.49214842  5504
STARLINK-37659          
1 69139U 26110R   26167.79257447  .00012952  00000+0  23902-3 0  9992
2 69139  97.2846   4.1333 0001717  85.3469 274.7979 15.49235182  5540
STARLINK-37653          
1 69140U 26110S   26167.79504123  .00022188  00000+0  40820-3 0  9990
2 69140  97.2844   4.1287 0001704  96.5028 263.6417 15.49208376  5548
STARLINK-37654          
1 69141U 26110T   26166.52422448  .00038342  00000+0  70164-3 0  9993
2 69141  97.2827   2.9503 0001818  88.7991 271.3469 15.49252690  5355
STARLINK-37655          
1 69142U 26110U   26167.83335647  .00049688  00000+0  13707-2 0  9997
2 69142  97.2851   4.2854 0001222  98.5136  34.5332 15.36936463  5605
STARLINK-37636          
1 69143U 26110V   26167.83335647  .00038933  00000+0  12034-2 0  9991
2 69143  97.2845   4.3136 0001985  80.3192 112.9942 15.33408263  5607
STARLINK-37638          
1 69144U 26110W   26167.83335647  .00035784  00000+0  11064-2 0  9995
2 69144  97.2845   4.3198 0001255  88.8170 119.6026 15.33418864  5600
STARLINK-37657          
1 69145U 26110X   26167.81629122  .00154541  00000+0  27921-2 0  9990
2 69145  97.2855   4.2550 0001179  92.7013 267.4373 15.49144951  5559
STARLINK-37639          
1 69146U 26110Y   26167.83335647  .00037326  00000+0  11550-2 0  9991
2 69146  97.2846   4.3333 0001707  85.0112 153.3753 15.33384764  5659
STARLINK-37661          
1 69147U 26110Z   26167.51477093  .00029440  00000+0  54043-3 0  9992
2 69147  97.2828   3.9004 0001754  94.8036 265.3415 15.49215430  5508
STARLINK-37395          
1 69148U 26111A   26167.83335647 -.02259414  00000+0 -28427-1 0  9992
2 69148  53.1596 153.8570 0001501  83.2924  99.3167 15.62290812  5492
STARLINK-37346          
1 69149U 26111B   26167.83335647  .00076623  00000+0  13745-2 0  9996
2 69149  53.1595 154.5089 0001366  94.4201 126.2164 15.49262823  5499
STARLINK-37332          
1 69150U 26111C   26167.83335647  .00076564  00000+0  13735-2 0  9991
2 69150  53.1597 154.8340 0001202  95.5213 324.3100 15.49260691  5492
STARLINK-37297          
1 69151U 26111D   26167.83335647 -.02429663  00000+0 -38690-1 0  9994
2 69151  53.1593 153.8227 0001458  93.2579 105.9389 15.56431030  5492
STARLINK-37317          
1 69152U 26111E   26167.83335647 -.02419618  00000+0 -32168-1 0  9998
2 69152  53.1600 153.6557 0001410 111.7346 169.2410 15.61128127  5496
