OBJECT_NAME,OBJECT_ID,EPOCH,MEAN_MOTION,ECCENTRICITY,INCLINATION,RA_OF_ASC_NODE,ARG_OF_PERICENTER,MEAN_ANOMALY,EPHEMERIS_TYPE,CLASSIFICATION_TYPE,NORAD_CAT_ID,ELEMENT_SET_NO,REV_AT_EPOCH,BSTAR,MEAN_MOTION_DOT,MEAN_MOTION_DDOT
SMILE,2026-109A,2026-06-07T09:11:54.544416,7.54049028,.3310191,69.9787,209.3069,288.5544,45.7342,0,U,69123,999,248,-.36778E-3,-.41E-6,0
STARLINK-37726,2026-110A,2026-06-16T20:17:43.855872,15.49208134,.0001496,97.2836,4.0602,89.2690,270.8733,0,U,69124,999,554,.42413E-3,.2306E-3,0
STARLINK-37722,2026-110B,2026-06-15T13:12:33.569856,15.49208597,.0001731,97.2822,2.9146,97.0248,263.1200,0,U,69125,999,535,.52493359E-3,.28583E-3,0
STARLINK-37715,2026-110C,2026-06-16T20:00:01.999008,15.33413425,.0001768,97.2841,4.1975,94.4565,188.9690,0,U,69126,999,559,.12492E-2,.40432E-3,0
STARLINK-37706,2026-110D,2026-06-16T20:00:01.999008,15.33416033,.0001583,97.2841,4.2047,94.0965,204.3305,0,U,69127,999,559,.12661E-2,.40984E-3,0
STARLINK-37723,2026-110E,2026-06-16T20:00:01.999008,15.33414009,.0001427,97.2842,4.2111,93.4885,219.9310,0,U,69128,999,559,.13808E-2,.44725E-3,0
STARLINK-37720,2026-110F,2026-06-16T12:20:01.103424,15.49210649,.00015833,97.2830,3.7477,102.0239,258.1190,0,U,69129,999,549,.63204302E-3,.34462E-3,0
STARLINK-37533,2026-110G,2026-06-16T20:00:01.999008,15.33384443,.0001728,97.2844,4.2300,92.4744,266.0469,0,U,69130,999,559,.16124E-2,.5224E-3,0
STARLINK-37530,2026-110H,2026-06-16T20:00:01.999008,15.33411383,.0001867,97.2843,4.2370,91.6891,281.7403,0,U,69131,999,559,.15362E-2,.49794E-3,0
STARLINK-37660,2026-110J,2026-06-16T20:00:01.999008,15.39211616,.0002115,97.2849,4.2294,109.2714,238.7132,0,U,69132,999,559,-.87403E-1,-.2994676E-1,0
STARLINK-37633,2026-110K,2026-06-16T20:00:01.999008,15.38595679,.0001116,97.2856,4.2467,98.8388,291.0158,0,U,69133,999,559,-.66315E-1,-.2259206E-1,0
STARLINK-37361,2026-110L,2026-06-16T20:00:01.999008,15.33419082,.000197,97.2845,4.2562,90.1333,328.2680,0,U,69134,999,559,.15065E-2,.48836E-3,0
STARLINK-37372,2026-110M,2026-06-16T20:00:01.999008,15.36883752,.0001236,97.2847,4.2493,78.8465,322.9358,0,U,69135,999,559,.15534E-2,.56278E-3,0
STARLINK-37531,2026-110N,2026-06-16T20:00:01.999008,15.33409182,.0001736,97.2844,4.2685,97.3139,351.0891,0,U,69136,999,559,.15178E-2,.49192E-3,0
STARLINK-37662,2026-110P,2026-06-16T20:00:01.999008,15.39352629,.0001619,97.2858,4.2595,82.1528,326.1472,0,U,69137,999,559,-.51488E-1,-.1810364E-1,0
STARLINK-37658,2026-110Q,2026-06-16T12:38:10.619520,15.49214842,.00015168,97.2843,3.8861,119.0725,241.0678,0,U,69138,999,550,.56224905E-3,.30636E-3,0
STARLINK-37659,2026-110R,2026-06-16T19:01:18.434208,15.49235182,.0001717,97.2846,4.1333,85.3469,274.7979,0,U,69139,999,554,.23902E-3,.12952E-3,0
STARLINK-37653,2026-110S,2026-06-16T19:04:51.562272,15.49208376,.0001704,97.2844,4.1287,96.5028,263.6417,0,U,69140,999,554,.4082E-3,.22188E-3,0
STARLINK-37654,2026-110T,2026-06-15T12:34:52.995072,15.49252690,.00018186,97.2827,2.9503,88.7991,271.3469,0,U,69141,999,535,.70164466E-3,.38342E-3,0
STARLINK-37655,2026-110U,2026-06-16T20:00:01.999008,15.36936463,.0001222,97.2851,4.2854,98.5136,34.5332,0,U,69142,999,560,.13707E-2,.49688E-3,0
STARLINK-37636,2026-110V,2026-06-16T20:00:01.999008,15.33408263,.0001985,97.2845,4.3136,80.3192,112.9942,0,U,69143,999,560,.12034E-2,.38933E-3,0
STARLINK-37638,2026-110W,2026-06-16T20:00:01.999008,15.33418864,.0001255,97.2845,4.3198,88.8170,119.6026,0,U,69144,999,560,.11064E-2,.35784E-3,0
STARLINK-37657,2026-110X,2026-06-16T19:35:27.561408,15.49144951,.0001179,97.2855,4.2550,92.7013,267.4373,0,U,69145,999,555,.27921E-2,.154541E-2,0
STARLINK-37639,2026-110Y,2026-06-16T20:00:01.999008,15.33384764,.0001707,97.2846,4.3333,85.0112,153.3753,0,U,69146,999,565,.1155E-2,.37326E-3,0
STARLINK-37661,2026-110Z,2026-06-16T12:21:16.208352,15.49215430,.00017549,97.2828,3.9004,94.8036,265.3415,0,U,69147,999,550,.54043359E-3,.2944E-3,0
STARLINK-37395,2026-111A,2026-06-16T20:00:01.999008,15.62290812,.0001501,53.1596,153.8570,83.2924,99.3167,0,U,69148,999,549,-.28427E-1,-.2259414E-1,0
STARLINK-37346,2026-111B,2026-06-16T20:00:01.999008,15.49262823,.0001366,53.1595,154.5089,94.4201,126.2164,0,U,69149,999,549,.13745E-2,.76623E-3,0
STARLINK-37332,2026-111C,2026-06-16T20:00:01.999008,15.49260691,.0001202,53.1597,154.8340,95.5213,324.3100,0,U,69150,999,549,.13735E-2,.76564E-3,0
STARLINK-37297,2026-111D,2026-06-16T20:00:01.999008,15.56431030,.0001458,53.1593,153.8227,93.2579,105.9389,0,U,69151,999,549,-.3869E-1,-.2429663E-1,0
STARLINK-37317,2026-111E,2026-06-16T20:00:01.999008,15.61128127,.000141,53.1600,153.6557,111.7346,169.2410,0,U,69152,999,549,-.32168E-1,-.2419618E-1,0
